start=new Date('2022-06-11T00:00:00.000Z').valueOf();
sats=[{"RA_OF_ASC_NODE":"339.2778","MEAN_MOTION":"15.08791942","OBJECT_ID":"2022-016AK","RCS_SIZE":"LARGE","CENTER_NAME":"EARTH","REV_AT_EPOCH":"1821","TIME_SYSTEM":"UTC","EPOCH":"2022-06-10T22:00:00.999936","DECAY_DATE":null,"OBJECT_TYPE":"PAYLOAD","COUNTRY_CODE":"US","TLE_LINE1":"1 51747U 22016AK  22161.91667824  .00050561  00000-0  31764-2 0  9990","ECCENTRICITY":"0.00016250","OBJECT_NAME":"STARLINK-3446","LAUNCH_DATE":"2022-02-21","PERIOD":"95.441","BSTAR":"0.00317640000000","NORAD_CAT_ID":"51747","TLE_LINE2":"2 51747  53.2151 339.2778 0001625  52.6350  50.8465 15.08791942 18213","MEAN_MOTION_DOT":"0.00050561","PERIAPSIS":"538.768","REF_FRAME":"TEME","FILE":"3490159","ELEMENT_SET_NO":"999","INCLINATION":"53.2151","MEAN_ELEMENT_THEORY":"SGP4","EPHEMERIS_TYPE":"0","SEMIMAJOR_AXIS":"6918.027","ARG_OF_PERICENTER":"52.6350","CLASSIFICATION_TYPE":"U","GP_ID":"205834378","MEAN_ANOMALY":"50.8465","SITE":"AFETR","MEAN_MOTION_DDOT":"0.0000000000000","APOAPSIS":"541.016"},{"NORAD_CAT_ID":"51748","PERIOD":"95.438","LAUNCH_DATE":"2022-02-21","BSTAR":"0.00295970000000","COUNTRY_CODE":"US","OBJECT_NAME":"STARLINK-3501","TLE_LINE1":"1 51748U 22016AL  22161.91667824  .00047121  00000-0  29597-2 0  9990","ECCENTRICITY":"0.00016530","OBJECT_TYPE":"PAYLOAD","REV_AT_EPOCH":"130","CENTER_NAME":"EARTH","TIME_SYSTEM":"UTC","DECAY_DATE":null,"EPOCH":"2022-06-10T22:00:00.999936","RCS_SIZE":"LARGE","MEAN_MOTION":"15.08832006","OBJECT_ID":"2022-016AL","RA_OF_ASC_NODE":"329.2949","SITE":"AFETR","MEAN_ANOMALY":"297.5638","APOAPSIS":"540.913","MEAN_MOTION_DDOT":"0.0000000000000","CLASSIFICATION_TYPE":"U","GP_ID":"205864785","ARG_OF_PERICENTER":"60.7458","MEAN_ELEMENT_THEORY":"SGP4","INCLINATION":"53.2172","SEMIMAJOR_AXIS":"6917.905","EPHEMERIS_TYPE":"0","ELEMENT_SET_NO":"999","FILE":"3490466","MEAN_MOTION_DOT":"0.00047121","TLE_LINE2":"2 51748  53.2172 329.2949 0001653  60.7458 297.5638 15.08832006  1307","REF_FRAME":"TEME","PERIAPSIS":"538.626"},{"OBJECT_ID":"2022-016AM","MEAN_MOTION":"15.08814705","RA_OF_ASC_NODE":"339.2895","EPOCH":"2022-06-10T22:00:00.999936","DECAY_DATE":null,"REV_AT_EPOCH":"1818","CENTER_NAME":"EARTH","TIME_SYSTEM":"UTC","RCS_SIZE":"LARGE","TLE_LINE1":"1 51749U 22016AM  22161.91667824  .00031195  00000-0  19708-2 0  9998","ECCENTRICITY":"0.00017250","OBJECT_NAME":"STARLINK-3451","COUNTRY_CODE":"US","OBJECT_TYPE":"PAYLOAD","NORAD_CAT_ID":"51749","BSTAR":"0.00197080000000","LAUNCH_DATE":"2022-02-21","PERIOD":"95.439","FILE":"3490159","ELEMENT_SET_NO":"999","REF_FRAME":"TEME","PERIAPSIS":"538.629","TLE_LINE2":"2 51749  53.2131 339.2895 0001725  50.3592 247.8708 15.08814705 18184","MEAN_MOTION_DOT":"0.00031195","EPHEMERIS_TYPE":"0","SEMIMAJOR_AXIS":"6917.958","MEAN_ELEMENT_THEORY":"SGP4","INCLINATION":"53.2131","GP_ID":"205834382","CLASSIFICATION_TYPE":"U","ARG_OF_PERICENTER":"50.3592","APOAPSIS":"541.016","MEAN_MOTION_DDOT":"0.0000000000000","MEAN_ANOMALY":"247.8708","SITE":"AFETR"},{"CENTER_NAME":"EARTH","REV_AT_EPOCH":"1833","TIME_SYSTEM":"UTC","DECAY_DATE":null,"EPOCH":"2022-06-10T22:00:00.999936","RCS_SIZE":"LARGE","MEAN_MOTION":"15.08808682","OBJECT_ID":"2022-016AN","RA_OF_ASC_NODE":"329.2948","NORAD_CAT_ID":"51750","PERIOD":"95.440","LAUNCH_DATE":"2022-02-21","BSTAR":"0.00228760000000","COUNTRY_CODE":"US","TLE_LINE1":"1 51750U 22016AN  22161.91667824  .00036276  00000-0  22876-2 0  9995","ECCENTRICITY":"0.00015790","OBJECT_NAME":"STARLINK-3505","OBJECT_TYPE":"PAYLOAD","MEAN_ELEMENT_THEORY":"SGP4","INCLINATION":"53.2174","SEMIMAJOR_AXIS":"6917.976","EPHEMERIS_TYPE":"0","ELEMENT_SET_NO":"999","FILE":"3490159","MEAN_MOTION_DOT":"0.00036276","TLE_LINE2":"2 51750  53.2174 329.2948 0001579  45.7564 352.6561 15.08808682 18331","PERIAPSIS":"538.749","REF_FRAME":"TEME","MEAN_ANOMALY":"352.6561","SITE":"AFETR","APOAPSIS":"540.933","MEAN_MOTION_DDOT":"0.0000000000000","CLASSIFICATION_TYPE":"U","GP_ID":"205834376","ARG_OF_PERICENTER":"45.7564"},{"TLE_LINE2":"2 51751  53.2165 329.2954 0001536  46.6957 291.6876 15.08802497  1306","MEAN_MOTION_DOT":"0.00047324","PERIAPSIS":"538.797","REF_FRAME":"TEME","FILE":"3490466","ELEMENT_SET_NO":"999","INCLINATION":"53.2165","MEAN_ELEMENT_THEORY":"SGP4","EPHEMERIS_TYPE":"0","SEMIMAJOR_AXIS":"6917.995","ARG_OF_PERICENTER":"46.6957","CLASSIFICATION_TYPE":"U","GP_ID":"205865538","SITE":"AFETR","MEAN_ANOMALY":"291.6876","APOAPSIS":"540.923","MEAN_MOTION_DDOT":"0.0000000000000","RA_OF_ASC_NODE":"329.2954","MEAN_MOTION":"15.08802497","OBJECT_ID":"2022-016AP","RCS_SIZE":"LARGE","REV_AT_EPOCH":"130","TIME_SYSTEM":"UTC","CENTER_NAME":"EARTH","DECAY_DATE":null,"EPOCH":"2022-06-10T22:00:00.999936","OBJECT_TYPE":"PAYLOAD","COUNTRY_CODE":"US","ECCENTRICITY":"0.00015360","TLE_LINE1":"1 51751U 22016AP  22161.91667824  .00047324  00000-0  29747-2 0  9996","OBJECT_NAME":"STARLINK-3506","LAUNCH_DATE":"2022-02-21","PERIOD":"95.440","BSTAR":"0.00297470000000","NORAD_CAT_ID":"51751"},{"ARG_OF_PERICENTER":"48.8600","CLASSIFICATION_TYPE":"U","GP_ID":"205864286","SITE":"AFETR","MEAN_ANOMALY":"9.5335","MEAN_MOTION_DDOT":"0.0000000000000","APOAPSIS":"541.010","MEAN_MOTION_DOT":"-0.00038918","TLE_LINE2":"2 51752  53.2175 329.2947 0001859  48.8600   9.5335 15.08846973  1300","REF_FRAME":"TEME","PERIAPSIS":"538.438","ELEMENT_SET_NO":"999","FILE":"3490466","MEAN_ELEMENT_THEORY":"SGP4","INCLINATION":"53.2175","SEMIMAJOR_AXIS":"6917.859","EPHEMERIS_TYPE":"0","OBJECT_TYPE":"PAYLOAD","COUNTRY_CODE":"US","ECCENTRICITY":"0.00018590","TLE_LINE1":"1 51752U 22016AQ  22161.91667824 -.00038918  00000-0 -24399-2 0  9996","OBJECT_NAME":"STARLINK-3511","PERIOD":"95.437","LAUNCH_DATE":"2022-02-21","BSTAR":"-0.00243990000000","NORAD_CAT_ID":"51752","RA_OF_ASC_NODE":"329.2947","MEAN_MOTION":"15.08846973","OBJECT_ID":"2022-016AQ","RCS_SIZE":"LARGE","REV_AT_EPOCH":"130","CENTER_NAME":"EARTH","TIME_SYSTEM":"UTC","EPOCH":"2022-06-10T22:00:00.999936","DECAY_DATE":null},{"OBJECT_ID":"2022-016AR","MEAN_MOTION":"15.08765738","RA_OF_ASC_NODE":"329.2956","DECAY_DATE":null,"EPOCH":"2022-06-10T22:00:00.999936","REV_AT_EPOCH":"1828","TIME_SYSTEM":"UTC","CENTER_NAME":"EARTH","RCS_SIZE":"LARGE","ECCENTRICITY":"0.00016770","TLE_LINE1":"1 51753U 22016AR  22161.91667824  .00047282  00000-0  29751-2 0  9996","OBJECT_NAME":"STARLINK-3507","COUNTRY_CODE":"US","OBJECT_TYPE":"PAYLOAD","NORAD_CAT_ID":"51753","BSTAR":"0.00297510000000","PERIOD":"95.442","LAUNCH_DATE":"2022-02-21","ELEMENT_SET_NO":"999","FILE":"3490159","PERIAPSIS":"538.812","REF_FRAME":"TEME","MEAN_MOTION_DOT":"0.00047282","TLE_LINE2":"2 51753  53.2165 329.2956 0001677  57.4832 320.9240 15.08765738 18280","SEMIMAJOR_AXIS":"6918.107","EPHEMERIS_TYPE":"0","MEAN_ELEMENT_THEORY":"SGP4","INCLINATION":"53.2165","GP_ID":"205834373","CLASSIFICATION_TYPE":"U","ARG_OF_PERICENTER":"57.4832","MEAN_MOTION_DDOT":"0.0000000000000","APOAPSIS":"541.133","MEAN_ANOMALY":"320.9240","SITE":"AFETR"},{"RCS_SIZE":"LARGE","REV_AT_EPOCH":"1833","TIME_SYSTEM":"UTC","CENTER_NAME":"EARTH","EPOCH":"2022-06-10T22:00:00.999936","DECAY_DATE":null,"RA_OF_ASC_NODE":"329.2945","MEAN_MOTION":"15.08836862","OBJECT_ID":"2022-016AS","LAUNCH_DATE":"2022-02-21","PERIOD":"95.438","BSTAR":"0.00212610000000","NORAD_CAT_ID":"51754","OBJECT_TYPE":"PAYLOAD","COUNTRY_CODE":"US","TLE_LINE1":"1 51754U 22016AS  22161.91667824  .00033708  00000-0  21261-2 0  9993","OBJECT_NAME":"STARLINK-3457","ECCENTRICITY":"0.00019170","INCLINATION":"53.2166","MEAN_ELEMENT_THEORY":"SGP4","EPHEMERIS_TYPE":"0","SEMIMAJOR_AXIS":"6917.890","TLE_LINE2":"2 51754  53.2166 329.2945 0001917  51.1858  41.8914 15.08836862 18336","MEAN_MOTION_DOT":"0.00033708","PERIAPSIS":"538.429","REF_FRAME":"TEME","FILE":"3490159","ELEMENT_SET_NO":"999","MEAN_ANOMALY":"41.8914","SITE":"AFETR","APOAPSIS":"541.081","MEAN_MOTION_DDOT":"0.0000000000000","ARG_OF_PERICENTER":"51.1858","CLASSIFICATION_TYPE":"U","GP_ID":"205833971"},{"OBJECT_TYPE":"PAYLOAD","COUNTRY_CODE":"US","TLE_LINE1":"1 51755U 22016AT  22161.91667824 -.00023340  00000-0 -14530-2 0  9998","ECCENTRICITY":"0.00017280","OBJECT_NAME":"STARLINK-3460","LAUNCH_DATE":"2022-02-21","PERIOD":"95.437","BSTAR":"-0.00145300000000","NORAD_CAT_ID":"51755","RA_OF_ASC_NODE":"329.2948","MEAN_MOTION":"15.08843275","OBJECT_ID":"2022-016AT","RCS_SIZE":"LARGE","REV_AT_EPOCH":"1833","TIME_SYSTEM":"UTC","CENTER_NAME":"EARTH","DECAY_DATE":null,"EPOCH":"2022-06-10T22:00:00.999936","ARG_OF_PERICENTER":"48.1083","CLASSIFICATION_TYPE":"U","GP_ID":"205833977","MEAN_ANOMALY":"30.3096","SITE":"AFETR","APOAPSIS":"540.931","MEAN_MOTION_DDOT":"0.0000000000000","TLE_LINE2":"2 51755  53.2169 329.2948 0001728  48.1083  30.3096 15.08843275 18339","MEAN_MOTION_DOT":"-0.00023340","REF_FRAME":"TEME","PERIAPSIS":"538.540","FILE":"3490159","ELEMENT_SET_NO":"999","MEAN_ELEMENT_THEORY":"SGP4","INCLINATION":"53.2169","EPHEMERIS_TYPE":"0","SEMIMAJOR_AXIS":"6917.870"},{"OBJECT_TYPE":"PAYLOAD","COUNTRY_CODE":"US","TLE_LINE1":"1 51756U 22016AU  22161.91667824 -.00217658  00000-0 -14023-1 0  9992","OBJECT_NAME":"STARLINK-3513","ECCENTRICITY":"0.00015130","PERIOD":"95.428","LAUNCH_DATE":"2022-02-21","BSTAR":"-0.01402300000000","NORAD_CAT_ID":"51756","RA_OF_ASC_NODE":"329.2863","MEAN_MOTION":"15.08985146","OBJECT_ID":"2022-016AU","RCS_SIZE":"MEDIUM","REV_AT_EPOCH":"130","CENTER_NAME":"EARTH","TIME_SYSTEM":"UTC","DECAY_DATE":null,"EPOCH":"2022-06-10T22:00:00.999936","ARG_OF_PERICENTER":"62.8943","CLASSIFICATION_TYPE":"U","GP_ID":"205864786","SITE":"AFETR","MEAN_ANOMALY":"175.2721","APOAPSIS":"540.348","MEAN_MOTION_DDOT":"0.0000000000000","MEAN_MOTION_DOT":"-0.00217658","TLE_LINE2":"2 51756  53.2174 329.2863 0001513  62.8943 175.2721 15.08985146  1309","PERIAPSIS":"538.255","REF_FRAME":"TEME","ELEMENT_SET_NO":"999","FILE":"3490466","INCLINATION":"53.2174","MEAN_ELEMENT_THEORY":"SGP4","SEMIMAJOR_AXIS":"6917.437","EPHEMERIS_TYPE":"0"}];
